NORAD_CAT_ID,OBJECT_NAME,OBJECT_TYPE,EPOCH,MEAN_MOTION,ECCENTRICITY,INCLINATION,RA_OF_ASC_NODE,ARG_OF_PERICENTER,MEAN_ANOMALY,BSTAR,MEAN_MOTION_DOT,MEAN_MOTION_DDOT,TLE_LINE0,TLE_LINE1,TLE_LINE2,SEMIMAJOR_AXIS,PERIOD,APOGEE,PERIGEE,DECAYED
52371.0,STARLINK-3798,PAYLOAD,2023-08-19 01:09:09,15.08854555,9.71e-05,53.2158,60.4086,85.7389,274.3714,-3.2099e-05,-7.99e-06,0.0,0 STARLINK-3798,1 52371U 22045AS  23231.04802778 -.00000799  00000-0 -32099-4 0  9992,2 52371  53.2158  60.4086 0000971  85.7389 274.3714 15.08854555 74965,6917.836,95.437,540.373,539.029,0.0
52371.0,STARLINK-3798,PAYLOAD,2023-08-19 12:16:52,15.08830993,0.0001139,53.218,58.3261,84.2095,275.9027,2.5706e-05,1.21e-06,0.0,0 STARLINK-3798,1 52371U 22045AS  23231.51172328  .00000121  00000-0  25706-4 0  9999,2 52371  53.2180  58.3261 0001139  84.2095 275.9027 15.08830993 75039,6917.908,95.438,540.561,538.985,0.0
52371.0,STARLINK-3798,PAYLOAD,2023-08-20 00:59:57,15.08846407,0.0001389,53.2151,55.9478,85.3675,274.7476,6.5202e-05,7.5e-06,0.0,0 STARLINK-3798,1 52371U 22045AS  23232.04163309  .00000750  00000-0  65202-4 0  9990,2 52371  53.2151  55.9478 0001389  85.3675 274.7476 15.08846407 75114,6917.861,95.437,540.687,538.765,0.0
52371.0,STARLINK-3798,PAYLOAD,2023-08-20 12:07:39,15.08837205,0.00015,53.215,53.8664,83.3317,276.7846,0.0001057,1.395e-05,0.0,0 STARLINK-3798,1 52371U 22045AS  23232.50531964  .00001395  00000-0  10570-3 0  9990,2 52371  53.2150  53.8664 0001500  83.3317 276.7846 15.08837205 75189,6917.889,95.438,540.792,538.716,0.0
52371.0,STARLINK-3798,PAYLOAD,2023-08-20 18:29:11,15.08849068,9.1e-05,53.2174,52.6766,84.8182,275.2914,7.0289e-05,8.31e-06,0.0,0 STARLINK-3798,1 52371U 22045AS  23232.77027150  .00000831  00000-0  70289-4 0  9994,2 52371  53.2174  52.6766 0000910  84.8182 275.2914 15.08849068 75220,6917.853,95.437,540.347,539.088,0.0
52371.0,STARLINK-3798,PAYLOAD,2023-08-21 05:36:53,15.08838446,9.43e-05,53.2181,50.5969,73.3596,286.7499,0.00014373,2e-05,0.0,0 STARLINK-3798,1 52371U 22045AS  23233.23395600  .00002000  00000-0  14373-3 0  9995,2 52371  53.2181  50.5969 0000943  73.3596 286.7499 15.08838446 75298,6917.885,95.438,540.402,539.098,0.0
52371.0,STARLINK-3798,PAYLOAD,2023-08-22 11:49:14,15.0883043,0.0001005,53.2181,44.9447,98.909,261.2016,5.2199e-05,5.43e-06,0.0,0 STARLINK-3798,1 52371U 22045AS  23234.49252334  .00000543  00000-0  52199-4 0  9999,2 52371  53.2181  44.9447 0001005  98.9090 261.2016 15.08830430 75487,6917.91,95.438,540.47,539.079,0.0
52371.0,STARLINK-3798,PAYLOAD,2023-08-22 22:56:55,15.08840494,0.0001781,53.218,42.8659,65.9945,294.1234,4.3996e-05,4.12e-06,0.0,0 STARLINK-3798,1 52371U 22045AS  23234.95620054  .00000412  00000-0  43996-4 0  9998,2 52371  53.2180  42.8659 0001781  65.9945 294.1234 15.08840494 75558,6917.879,95.438,540.976,538.512,0.0
52371.0,STARLINK-3798,PAYLOAD,2023-08-24 21:03:06,15.088404,0.0001897,53.2167,34.2426,69.509,290.6106,6.848e-05,8.02e-06,0.0,0 STARLINK-3798,1 52371U 22045AS  23236.87716248  .00000802  00000-0  68480-4 0  9990,2 52371  53.2167  34.2426 0001897  69.5090 290.6106 15.08840400 75847,6917.879,95.438,541.056,538.432,0.0
52371.0,STARLINK-3798,PAYLOAD,2023-08-25 19:18:30,15.08842852,0.0001327,53.2197,30.0744,86.0935,274.0209,3.8707e-05,3.28e-06,0.0,0 STARLINK-3798,1 52371U 22045AS  23237.80452173  .00000328  00000-0  38707-4 0  9990,2 52371  53.2197  30.0744 0001327  86.0935 274.0209 15.08842852 75985,6917.872,95.437,540.655,538.819,0.0
52371.0,STARLINK-3798,PAYLOAD,2023-08-26 09:36:59,15.08840359,0.0001942,53.2164,27.3998,93.5802,266.5412,9.8842e-05,1.285e-05,0.0,0 STARLINK-3798,1 52371U 22045AS  23238.40068374  .00001285  00000-0  98842-4 0  9992,2 52371  53.2164  27.3998 0001942  93.5802 266.5412 15.08840359 76071,6917.879,95.438,541.088,538.401,0.0
52371.0,STARLINK-3798,PAYLOAD,2023-08-26 17:33:54,15.08843218,0.0001367,53.2184,25.9163,76.5946,283.5198,6.9921e-05,8.25e-06,0.0,0 STARLINK-3798,1 52371U 22045AS  23238.73188226  .00000825  00000-0  69921-4 0  9992,2 52371  53.2184  25.9163 0001367  76.5946 283.5198 15.08843218 76125,6917.871,95.437,540.681,538.79,0.0
52371.0,STARLINK-3798,PAYLOAD,2023-08-27 09:27:46,15.08841113,0.000138,53.2196,22.9445,77.8982,282.2164,4.7971e-05,4.76e-06,0.0,0 STARLINK-3798,1 52371U 22045AS  23239.39428682  .00000476  00000-0  47971-4 0  9991,2 52371  53.2196  22.9445 0001380  77.8982 282.2164 15.08841113 76229,6917.877,95.437,540.697,538.787,0.0
52371.0,STARLINK-3798,PAYLOAD,2023-08-27 19:00:04,15.08845206,0.0001286,53.2193,21.1582,86.3052,273.8087,7.2664e-05,8.69e-06,0.0,0 STARLINK-3798,1 52371U 22045AS  23239.79172260  .00000869  00000-0  72664-4 0  9996,2 52371  53.2193  21.1582 0001286  86.3052 273.8087 15.08845206 76280,6917.864,95.437,540.619,538.84,0.0
52371.0,STARLINK-3798,PAYLOAD,2023-08-28 02:57:01,15.08832544,4.14e-05,53.2194,19.6711,112.9885,247.1151,-1.3678e-05,-5.05e-06,0.0,0 STARLINK-3798,1 52371U 22045AS  23240.12292886 -.00000505  00000-0 -13678-4 0  9991,2 52371  53.2194  19.6711 0000414 112.9885 247.1151 15.08832544 76332,6917.903,95.438,540.055,539.482,0.0
52371.0,STARLINK-3798,PAYLOAD,2023-08-28 15:40:05,15.08842568,0.0001041,53.219,17.2896,95.2717,264.8394,-4.546e-07,-2.95e-06,0.0,0 STARLINK-3798,1 52371U 22045AS  23240.65284613 -.00000295  00000-0 -45460-6 0  9990,2 52371  53.2190  17.2896 0001041  95.2717 264.8394 15.08842568 76411,6917.873,95.437,540.458,539.017,0.0
52371.0,STARLINK-3798,PAYLOAD,2023-08-28 20:26:14,15.08849742,0.0001276,53.2186,16.3992,84.289,275.8247,0.00010663,1.41e-05,0.0,0 STARLINK-3798,1 52371U 22045AS  23240.85155932  .00001410  00000-0  10663-3 0  9995,2 52371  53.2186  16.3992 0001276  84.2890 275.8247 15.08849742 76446,6917.851,95.437,540.598,538.833,0.0
52371.0,STARLINK-3798,PAYLOAD,2023-08-29 09:09:20,15.08839773,0.0001184,53.2185,14.0191,94.4688,265.644,2.7458e-05,1.49e-06,0.0,0 STARLINK-3798,1 52371U 22045AS  23241.38148836  .00000149  00000-0  27458-4 0  9998,2 52371  53.2185  14.0191 0001184  94.4688 265.6440 15.08839773 76521,6917.881,95.438,540.565,538.927,0.0
52371.0,STARLINK-3798,PAYLOAD,2023-08-29 18:41:38,15.08850619,0.0001228,53.219,12.2366,81.2266,278.8866,0.0001156,1.553e-05,0.0,0 STARLINK-3798,1 52371U 22045AS  23241.77892018  .00001553  00000-0  11560-3 0  9995,2 52371  53.2190  12.2366 0001228  81.2266 278.8866 15.08850619 76582,6917.848,95.437,540.562,538.863,0.0
52371.0,STARLINK-3798,PAYLOAD,2023-08-30 15:21:39,15.08842644,0.0001254,53.2191,8.3706,88.3555,271.7581,0.00011406,1.528e-05,0.0,0 STARLINK-3798,1 52371U 22045AS  23242.64004617  .00001528  00000-0  11406-3 0  9993,2 52371  53.2191   8.3706 0001254  88.3555 271.7581 15.08842644 76715,6917.872,95.437,540.605,538.87,0.0
52371.0,STARLINK-3798,PAYLOAD,2023-08-30 20:07:48,15.08850342,0.000122,53.2187,7.4787,85.7724,274.3408,0.00010429,1.373e-05,0.0,0 STARLINK-3798,1 52371U 22045AS  23242.83876105  .00001373  00000-0  10429-3 0  9995,2 52371  53.2187   7.4787 0001220  85.7724 274.3408 15.08850342 76745,6917.849,95.437,540.558,538.87,0.0
52371.0,STARLINK-3798,PAYLOAD,2023-08-31 00:53:58,15.08850941,0.0001214,53.2184,6.5863,85.8367,274.2764,0.00012419,1.69e-05,0.0,0 STARLINK-3798,1 52371U 22045AS  23243.03748044  .00001690  00000-0  12419-3 0  9991,2 52371  53.2184   6.5863 0001214  85.8367 274.2764 15.08850941 76776,6917.847,95.437,540.552,538.872,0.0
52371.0,STARLINK-3798,PAYLOAD,2023-08-31 19:58:36,15.08839591,0.0001465,53.2179,3.0175,91.8944,268.2216,-1.1047e-05,-4.64e-06,0.0,0 STARLINK-3798,1 52371U 22045AS  23243.83236638 -.00000464  00000-0 -11047-4 0  9997,2 52371  53.2179   3.0175 0001465  91.8944 268.2216 15.08839591 76890,6917.882,95.438,540.76,538.733,0.0
52371.0,STARLINK-3798,PAYLOAD,2023-09-01 00:44:46,15.08833208,0.0001283,53.2185,2.1253,86.5898,273.524,-0.00013349,-2.411e-05,0.0,0 STARLINK-3798,1 52371U 22045AS  23244.03108895 -.00002411  00000-0 -13349-3 0  9993,2 52371  53.2185   2.1253 0001283  86.5898 273.5240 15.08833208 76920,6917.901,95.438,540.654,538.879,0.0
52371.0,STARLINK-3798,PAYLOAD,2023-09-01 18:13:59,15.08860757,0.0001076,53.2194,358.8572,99.8328,260.2785,0.00020521,2.981e-05,0.0,0 STARLINK-3798,1 52371U 22045AS  23244.75971240  .00002981  00000-0  20521-3 0  9994,2 52371  53.2194 358.8572 0001076  99.8328 260.2785 15.08860757 77039,6917.817,95.436,540.426,538.938,0.0
52371.0,STARLINK-3798,PAYLOAD,2023-09-02 00:35:32,15.08843572,0.0001482,53.2204,357.6652,80.3751,279.7409,1.4245e-05,-6.1e-07,0.0,0 STARLINK-3798,1 52371U 22045AS  23245.02468717 -.00000061  00000-0  14245-4 0  9990,2 52371  53.2204 357.6652 0001482  80.3751 279.7409 15.08843572 77071,6917.869,95.437,540.76,538.709,0.0
52371.0,STARLINK-3798,PAYLOAD,2023-09-02 13:18:38,15.08831185,8.42e-05,53.2201,355.2882,91.177,268.9319,0.00013362,1.839e-05,0.0,0 STARLINK-3798,1 52371U 22045AS  23245.55461175  .00001839  00000-0  13362-3 0  9990,2 52371  53.2201 355.2882 0000842  91.1770 268.9319 15.08831185 77153,6917.907,95.438,540.355,539.19,0.0
52371.0,STARLINK-3798,PAYLOAD,2023-09-02 19:40:10,15.08849258,8.81e-05,53.2177,354.0969,104.5422,255.5668,0.00032839,4.944e-05,0.0,0 STARLINK-3798,1 52371U 22045AS  23245.81956250  .00004944  00000-0  32839-3 0  9992,2 52371  53.2177 354.0969 0000881 104.5422 255.5668 15.08849258 77197,6917.852,95.437,540.327,539.108,0.0
52371.0,STARLINK-3798,PAYLOAD,2023-09-03 00:26:20,15.08838984,0.000162,53.2178,353.203,84.0988,276.0189,2.6379e-05,1.32e-06,0.0,0 STARLINK-3798,1 52371U 22045AS  23246.01828913  .00000132  00000-0  26379-4 0  9997,2 52371  53.2178 353.2030 0001620  84.0988 276.0189 15.08838984 77223,6917.883,95.438,540.869,538.628,0.0
52371.0,STARLINK-3798,PAYLOAD,2023-09-03 13:09:24,15.08843879,7.82e-05,53.2196,350.8255,83.401,276.7071,4.6762e-05,4.57e-06,0.0,0 STARLINK-3798,1 52371U 22045AS  23246.54820401  .00000457  00000-0  46762-4 0  9997,2 52371  53.2196 350.8255 0000782  83.4010 276.7071 15.08843879 77307,6917.869,95.437,540.275,539.193,0.0
